{
    "week": 293,
    "satellites": [
        {
            "Name": "BEIDOU-3 M8 (C28)",
            "Line1": "1 43108U 18003B   24327.44054136 -.00000076  00000+0  00000+0 0  9995",
            "Line2": "2 43108  54.8111 322.1531 0005212 265.7239  94.2260  1.86230958 46712",
            "SatelliteNumber": "43108",
            "Classification": "U",
            "LaunchYear": "18",
            "LaunchNumber": "003",
            "PieceOfLaunch": "B",
            "EpochYear": "24",
            "EpochDay": 327.44054136,
            "FirstDerivativeMeanMotion": -7.6e-07,
            "SecondDerivativeMeanMotion": "00000+0",
            "BSTAR": "00000+0",
            "SetNumber": "999",
            "Inclination": 54.8111,
            "RAAN": 322.1531,
            "Eccentricity": 0.0005212,
            "ArgumentOfPerigee": 265.7239,
            "MeanAnomaly": 94.226,
            "MeanMotion": 1.86230958,
            "RevolutionNumber": "4671"
        },
        {
            "Name": "BEIDOU-3 M4 (C22)",
            "Line1": "1 43207U 18018A   24327.34470644 -.00000015  00000+0  00000+0 0  9999",
            "Line2": "2 43207  56.1539  82.0837 0003789  16.0735 343.9249  1.86231242 46096",
            "SatelliteNumber": "43207",
            "Classification": "U",
            "LaunchYear": "18",
            "LaunchNumber": "018",
            "PieceOfLaunch": "A",
            "EpochYear": "24",
            "EpochDay": 327.34470644,
            "FirstDerivativeMeanMotion": -1.5e-07,
            "SecondDerivativeMeanMotion": "00000+0",
            "BSTAR": "00000+0",
            "SetNumber": "999",
            "Inclination": 56.1539,
            "RAAN": 82.0837,
            "Eccentricity": 0.0003789,
            "ArgumentOfPerigee": 16.0735,
            "MeanAnomaly": 343.9249,
            "MeanMotion": 1.86231242,
            "RevolutionNumber": "4609"
        },
        {
            "Name": "BEIDOU-3 M3 (C21)",
            "Line1": "1 43208U 18018B   24327.41131775 -.00000015  00000+0  00000+0 0  9997",
            "Line2": "2 43208  56.1534  82.0857 0005622 313.1599  46.7796  1.86231363 46090",
            "SatelliteNumber": "43208",
            "Classification": "U",
            "LaunchYear": "18",
            "LaunchNumber": "018",
            "PieceOfLaunch": "B",
            "EpochYear": "24",
            "EpochDay": 327.41131775,
            "FirstDerivativeMeanMotion": -1.5e-07,
            "SecondDerivativeMeanMotion": "00000+0",
            "BSTAR": "00000+0",
            "SetNumber": "999",
            "Inclination": 56.1534,
            "RAAN": 82.0857,
            "Eccentricity": 0.0005622,
            "ArgumentOfPerigee": 313.1599,
            "MeanAnomaly": 46.7796,
            "MeanMotion": 1.86231363,
            "RevolutionNumber": "4609"
        },
        {
            "Name": "BEIDOU-3 M9 (C29)",
            "Line1": "1 43245U 18029A   24327.09420552 -.00000074  00000+0  00000+0 0  9993",
            "Line2": "2 43245  54.6965 319.8720 0002250 266.1210  93.8598  1.86232755 45248",
            "SatelliteNumber": "43245",
            "Classification": "U",
            "LaunchYear": "18",
            "LaunchNumber": "029",
            "PieceOfLaunch": "A",
            "EpochYear": "24",
            "EpochDay": 327.09420552,
            "FirstDerivativeMeanMotion": -7.4e-07,
            "SecondDerivativeMeanMotion": "00000+0",
            "BSTAR": "00000+0",
            "SetNumber": "999",
            "Inclination": 54.6965,
            "RAAN": 319.872,
            "Eccentricity": 0.000225,
            "ArgumentOfPerigee": 266.121,
            "MeanAnomaly": 93.8598,
            "MeanMotion": 1.86232755,
            "RevolutionNumber": "4524"
        },
        {
            "Name": "BEIDOU-3 M10 (C30)",
            "Line1": "1 43246U 18029B   24327.56060111 -.00000074  00000+0  00000+0 0  9997",
            "Line2": "2 43246  54.6939 319.8841 0003784 344.6569  15.3387  1.86232900 45243",
            "SatelliteNumber": "43246",
            "Classification": "U",
            "LaunchYear": "18",
            "LaunchNumber": "029",
            "PieceOfLaunch": "B",
            "EpochYear": "24",
            "EpochDay": 327.56060111,
            "FirstDerivativeMeanMotion": -7.4e-07,
            "SecondDerivativeMeanMotion": "00000+0",
            "BSTAR": "00000+0",
            "SetNumber": "999",
            "Inclination": 54.6939,
            "RAAN": 319.8841,
            "Eccentricity": 0.0003784,
            "ArgumentOfPerigee": 344.6569,
            "MeanAnomaly": 15.3387,
            "MeanMotion": 1.862329,
            "RevolutionNumber": "4524"
        },
        {
            "Name": "BEIDOU-2 IGSO-7 (C16)",
            "Line1": "1 43539U 18057A   24327.49796215 -.00000069  00000+0  00000+0 0  9990",
            "Line2": "2 43539  55.1499 168.0073 0078018 232.2434 313.7320  1.00263676 23407",
            "SatelliteNumber": "43539",
            "Classification": "U",
            "LaunchYear": "18",
            "LaunchNumber": "057",
            "PieceOfLaunch": "A",
            "EpochYear": "24",
            "EpochDay": 327.49796215,
            "FirstDerivativeMeanMotion": -6.9e-07,
            "SecondDerivativeMeanMotion": "00000+0",
            "BSTAR": "00000+0",
            "SetNumber": "999",
            "Inclination": 55.1499,
            "RAAN": 168.0073,
            "Eccentricity": 0.0078018,
            "ArgumentOfPerigee": 232.2434,
            "MeanAnomaly": 313.732,
            "MeanMotion": 1.00263676,
            "RevolutionNumber": "2340"
        },
        {
            "Name": "BEIDOU-3 M5 (C23)",
            "Line1": "1 43581U 18062A   24327.24921612  .00000002  00000+0  00000+0 0  9993",
            "Line2": "2 43581  54.1139 201.7547 0002342 330.4545  29.6134  1.86228850 42985",
            "SatelliteNumber": "43581",
            "Classification": "U",
            "LaunchYear": "18",
            "LaunchNumber": "062",
            "PieceOfLaunch": "A",
            "EpochYear": "24",
            "EpochDay": 327.24921612,
            "FirstDerivativeMeanMotion": 2e-08,
            "SecondDerivativeMeanMotion": "00000+0",
            "BSTAR": "00000+0",
            "SetNumber": "999",
            "Inclination": 54.1139,
            "RAAN": 201.7547,
            "Eccentricity": 0.0002342,
            "ArgumentOfPerigee": 330.4545,
            "MeanAnomaly": 29.6134,
            "MeanMotion": 1.8622885,
            "RevolutionNumber": "4298"
        },
        {
            "Name": "BEIDOU-3 M6 (C24)",
            "Line1": "1 43582U 18062B   24327.11421834  .00000001  00000+0  00000+0 0  9990",
            "Line2": "2 43582  54.1136 201.7486 0007015  36.2732 323.8557  1.86229919 42981",
            "SatelliteNumber": "43582",
            "Classification": "U",
            "LaunchYear": "18",
            "LaunchNumber": "062",
            "PieceOfLaunch": "B",
            "EpochYear": "24",
            "EpochDay": 327.11421834,
            "FirstDerivativeMeanMotion": 1e-08,
            "SecondDerivativeMeanMotion": "00000+0",
            "BSTAR": "00000+0",
            "SetNumber": "999",
            "Inclination": 54.1136,
            "RAAN": 201.7486,
            "Eccentricity": 0.0007015,
            "ArgumentOfPerigee": 36.2732,
            "MeanAnomaly": 323.8557,
            "MeanMotion": 1.86229919,
            "RevolutionNumber": "4298"
        },
        {
            "Name": "BEIDOU-3 M12 (C26)",
            "Line1": "1 43602U 18067A   24327.04803486  .00000003  00000+0  00000+0 0  9999",
            "Line2": "2 43602  54.2053 200.4468 0008502  33.2270 326.9082  1.86227778 42466",
            "SatelliteNumber": "43602",
            "Classification": "U",
            "LaunchYear": "18",
            "LaunchNumber": "067",
            "PieceOfLaunch": "A",
            "EpochYear": "24",
            "EpochDay": 327.04803486,
            "FirstDerivativeMeanMotion": 3e-08,
            "SecondDerivativeMeanMotion": "00000+0",
            "BSTAR": "00000+0",
            "SetNumber": "999",
            "Inclination": 54.2053,
            "RAAN": 200.4468,
            "Eccentricity": 0.0008502,
            "ArgumentOfPerigee": 33.227,
            "MeanAnomaly": 326.9082,
            "MeanMotion": 1.86227778,
            "RevolutionNumber": "4246"
        },
        {
            "Name": "BEIDOU-3 M11 (C25)",
            "Line1": "1 43603U 18067B   24327.18150790  .00000004  00000+0  00000+0 0  9999",
            "Line2": "2 43603  54.2027 200.4071 0005122  27.9871 332.1221  1.86227280 42495",
            "SatelliteNumber": "43603",
            "Classification": "U",
            "LaunchYear": "18",
            "LaunchNumber": "067",
            "PieceOfLaunch": "B",
            "EpochYear": "24",
            "EpochDay": 327.1815079,
            "FirstDerivativeMeanMotion": 4e-08,
            "SecondDerivativeMeanMotion": "00000+0",
            "BSTAR": "00000+0",
            "SetNumber": "999",
            "Inclination": 54.2027,
            "RAAN": 200.4071,
            "Eccentricity": 0.0005122,
            "ArgumentOfPerigee": 27.9871,
            "MeanAnomaly": 332.1221,
            "MeanMotion": 1.8622728,
            "RevolutionNumber": "4249"
        }
    ]
}